ONEWEB-0311             
1 49097U 21075Y   25210.89860309  .00000088  00000+0  19462-3 0  9997
2 49097  87.9032  70.0045 0001502  94.2735 265.8568 13.17648352191184
ONEWEB-0312             
1 49098U 21075Z   25210.83786795  .00000101  00000+0  22805-3 0  9999
2 49098  87.9034  70.0479 0001379  82.3989 277.7299 13.17649675191158
ONEWEB-0313             
1 49099U 21075AA  25210.84278063  .00000085  00000+0  18492-3 0  9993
2 49099  87.9028  70.0615 0001774  87.2652 272.8682 13.17651003191143
ONEWEB-0314             
1 49100U 21075AB  25210.88512147 -.00000022  00000+0 -90787-4 0  9995
2 49100  87.9037  69.9857 0001373  84.3990 275.7298 13.17649148191129
ONEWEB-0315             
1 49101U 21075AC  25210.80242361  .00000224  00000+0  58809-3 0  9996
2 49101  87.8853  54.7353 0001700  99.3954 260.7367 13.12442645192881
ONEWEB-0316             
1 49102U 21075AD  25210.91137316  .00000010  00000+0 -76704-5 0  9992
2 49102  87.9125  39.4860 0001801  96.2032 263.9305 13.18686180194736
ONEWEB-0317             
1 49103U 21075AE  25210.94841077  .00000355  00000+0  95241-3 0  9998
2 49103  87.8850  54.7213 0001953  61.2407 298.8917 13.12442672192924
ONEWEB-0318             
1 49104U 21075AF  25210.60456626 -.00000012  00000+0 -64026-4 0  9994
2 49104  87.9126  39.5332 0001733  96.9718 263.1612 13.18686442194651
ONEWEB-0319             
1 49105U 21075AG  25211.12810681  .00000036  00000+0  60361-4 0  9990
2 49105  87.9034  69.9835 0001512  96.1244 264.0060 13.17649376192183
ONEWEB-0323             
1 49106U 21075AH  25211.09115028  .00000402  00000+0  10828-2 0  9998
2 49106  87.8850  54.6784 0001363 110.2656 249.8619 13.12442573193303
ONEWEB-0329             
1 49107U 21075AJ  25210.68091736  .00000049  00000+0  91957-4 0  9993
2 49107  87.9032  70.0775 0001528  87.5180 272.6126 13.17649582191118
ONEWEB-0330             
1 49108U 21075AK  25211.13766256  .00000046  00000+0  85490-4 0  9993
2 49108  87.9029  69.9885 0001488  79.3536 280.7763 13.17726461192203
ONEWEB-0292             
1 49186U 21083A   25210.93433763  .00000374  00000+0  98941-3 0  9997
2 49186  87.8968  24.2865 0001767  97.4228 262.7102 13.13469492188623
ONEWEB-0303             
1 49187U 21083B   25210.90475653  .00000063  00000+0  12829-3 0  9995
2 49187  87.9125  39.4742 0001734  95.0255 265.1075 13.18685124187509
ONEWEB-0306             
1 49188U 21083C   25210.89486123 -.00000005  00000+0 -45565-4 0  9990
2 49188  87.9125  39.4615 0001876  83.0559 277.0787 13.18684394188826
ONEWEB-0307             
1 49189U 21083D   25210.85224778  .00000649  00000+0  17411-2 0  9992
2 49189  87.8954  24.3061 0001682  81.4748 278.6571 13.13468365188619
ONEWEB-0320             
1 49190U 21083E   25210.82558725 -.00000031  00000+0 -11171-3 0  9998
2 49190  87.9124  39.5040 0001774  89.7898 270.3437 13.18685919187491
