[{"OBJECT_NAME":"ONEWEB-0311","OBJECT_ID":"2021-075Y","EPOCH":"2025-07-29T21:33:59.306976","MEAN_MOTION":13.17648352,"ECCENTRICITY":0.0001502,"INCLINATION":87.9032,"RA_OF_ASC_NODE":70.0045,"ARG_OF_PERICENTER":94.2735,"MEAN_ANOMALY":265.8568,"EPHEMERIS_TYPE":0,"CLASSIFICATION_TYPE":"U","NORAD_CAT_ID":49097,"ELEMENT_SET_NO":999,"REV_AT_EPOCH":19118,"BSTAR":0.00019462,"MEAN_MOTION_DOT":8.8e-7,"MEAN_MOTION_DDOT":0},{"OBJECT_NAME":"ONEWEB-0312","OBJECT_ID":"2021-075Z","EPOCH":"2025-07-29T20:06:31.790880","MEAN_MOTION":13.17649675,"ECCENTRICITY":0.0001379,"INCLINATION":87.9034,"RA_OF_ASC_NODE":70.0479,"ARG_OF_PERICENTER":82.3989,"MEAN_ANOMALY":277.7299,"EPHEMERIS_TYPE":0,"CLASSIFICATION_TYPE":"U","NORAD_CAT_ID":49098,"ELEMENT_SET_NO":999,"REV_AT_EPOCH":19115,"BSTAR":0.00022805,"MEAN_MOTION_DOT":1.01e-6,"MEAN_MOTION_DDOT":0},{"OBJECT_NAME":"ONEWEB-0313","OBJECT_ID":"2021-075AA","EPOCH":"2025-07-29T20:13:36.246432","MEAN_MOTION":13.17651003,"ECCENTRICITY":0.0001774,"INCLINATION":87.9028,"RA_OF_ASC_NODE":70.0615,"ARG_OF_PERICENTER":87.2652,"MEAN_ANOMALY":272.8682,"EPHEMERIS_TYPE":0,"CLASSIFICATION_TYPE":"U","NORAD_CAT_ID":49099,"ELEMENT_SET_NO":999,"REV_AT_EPOCH":19114,"BSTAR":0.00018492,"MEAN_MOTION_DOT":8.5e-7,"MEAN_MOTION_DDOT":0},{"OBJECT_NAME":"ONEWEB-0314","OBJECT_ID":"2021-075AB","EPOCH":"2025-07-29T21:14:34.495008","MEAN_MOTION":13.17649148,"ECCENTRICITY":0.0001373,"INCLINATION":87.9037,"RA_OF_ASC_NODE":69.9857,"ARG_OF_PERICENTER":84.399,"MEAN_ANOMALY":275.7298,"EPHEMERIS_TYPE":0,"CLASSIFICATION_TYPE":"U","NORAD_CAT_ID":49100,"ELEMENT_SET_NO":999,"REV_AT_EPOCH":19112,"BSTAR":-9.0787e-5,"MEAN_MOTION_DOT":-2.2e-7,"MEAN_MOTION_DDOT":0},{"OBJECT_NAME":"ONEWEB-0315","OBJECT_ID":"2021-075AC","EPOCH":"2025-07-29T19:15:29.399904","MEAN_MOTION":13.12442645,"ECCENTRICITY":0.00017,"INCLINATION":87.8853,"RA_OF_ASC_NODE":54.7353,"ARG_OF_PERICENTER":99.3954,"MEAN_ANOMALY":260.7367,"EPHEMERIS_TYPE":0,"CLASSIFICATION_TYPE":"U","NORAD_CAT_ID":49101,"ELEMENT_SET_NO":999,"REV_AT_EPOCH":19288,"BSTAR":0.00058809,"MEAN_MOTION_DOT":2.24e-6,"MEAN_MOTION_DDOT":0},{"OBJECT_NAME":"ONEWEB-0316","OBJECT_ID":"2021-075AD","EPOCH":"2025-07-29T21:52:22.641024","MEAN_MOTION":13.1868618,"ECCENTRICITY":0.0001801,"INCLINATION":87.9125,"RA_OF_ASC_NODE":39.486,"ARG_OF_PERICENTER":96.2032,"MEAN_ANOMALY":263.9305,"EPHEMERIS_TYPE":0,"CLASSIFICATION_TYPE":"U","NORAD_CAT_ID":49102,"ELEMENT_SET_NO":999,"REV_AT_EPOCH":19473,"BSTAR":-7.6704e-6,"MEAN_MOTION_DOT":1.0e-7,"MEAN_MOTION_DDOT":0},{"OBJECT_NAME":"ONEWEB-0317","OBJECT_ID":"2021-075AE","EPOCH":"2025-07-29T22:45:42.690528","MEAN_MOTION":13.12442672,"ECCENTRICITY":0.0001953,"INCLINATION":87.885,"RA_OF_ASC_NODE":54.7213,"ARG_OF_PERICENTER":61.2407,"MEAN_ANOMALY":298.8917,"EPHEMERIS_TYPE":0,"CLASSIFICATION_TYPE":"U","NORAD_CAT_ID":49103,"ELEMENT_SET_NO":999,"REV_AT_EPOCH":19292,"BSTAR":0.00095241,"MEAN_MOTION_DOT":3.55e-6,"MEAN_MOTION_DDOT":0},{"OBJECT_NAME":"ONEWEB-0318","OBJECT_ID":"2021-075AF","EPOCH":"2025-07-29T14:30:34.524864","MEAN_MOTION":13.18686442,"ECCENTRICITY":0.0001733,"INCLINATION":87.9126,"RA_OF_ASC_NODE":39.5332,"ARG_OF_PERICENTER":96.9718,"MEAN_ANOMALY":263.1612,"EPHEMERIS_TYPE":0,"CLASSIFICATION_TYPE":"U","NORAD_CAT_ID":49104,"ELEMENT_SET_NO":999,"REV_AT_EPOCH":19465,"BSTAR":-6.4026e-5,"MEAN_MOTION_DOT":-1.2e-7,"MEAN_MOTION_DDOT":0},{"OBJECT_NAME":"ONEWEB-0319","OBJECT_ID":"2021-075AG","EPOCH":"2025-07-30T03:04:28.428384","MEAN_MOTION":13.17649376,"ECCENTRICITY":0.0001512,"INCLINATION":87.9034,"RA_OF_ASC_NODE":69.9835,"ARG_OF_PERICENTER":96.1244,"MEAN_ANOMALY":264.006,"EPHEMERIS_TYPE":0,"CLASSIFICATION_TYPE":"U","NORAD_CAT_ID":49105,"ELEMENT_SET_NO":999,"REV_AT_EPOCH":19218,"BSTAR":6.0361e-5,"MEAN_MOTION_DOT":3.6e-7,"MEAN_MOTION_DDOT":0},{"OBJECT_NAME":"ONEWEB-0323","OBJECT_ID":"2021-075AH","EPOCH":"2025-07-30T02:11:15.384192","MEAN_MOTION":13.12442573,"ECCENTRICITY":0.0001363,"INCLINATION":87.885,"RA_OF_ASC_NODE":54.6784,"ARG_OF_PERICENTER":110.2656,"MEAN_ANOMALY":249.8619,"EPHEMERIS_TYPE":0,"CLASSIFICATION_TYPE":"U","NORAD_CAT_ID":49106,"ELEMENT_SET_NO":999,"REV_AT_EPOCH":19330,"BSTAR":0.0010828,"MEAN_MOTION_DOT":4.02e-6,"MEAN_MOTION_DDOT":0},{"OBJECT_NAME":"ONEWEB-0329","OBJECT_ID":"2021-075AJ","EPOCH":"2025-07-29T16:20:31.259904","MEAN_MOTION":13.17649582,"ECCENTRICITY":0.0001528,"INCLINATION":87.9032,"RA_OF_ASC_NODE":70.0775,"ARG_OF_PERICENTER":87.518,"MEAN_ANOMALY":272.6126,"EPHEMERIS_TYPE":0,"CLASSIFICATION_TYPE":"U","NORAD_CAT_ID":49107,"ELEMENT_SET_NO":999,"REV_AT_EPOCH":19111,"BSTAR":9.1957e-5,"MEAN_MOTION_DOT":4.9e-7,"MEAN_MOTION_DDOT":0},{"OBJECT_NAME":"ONEWEB-0330","OBJECT_ID":"2021-075AK","EPOCH":"2025-07-30T03:18:14.045184","MEAN_MOTION":13.17726461,"ECCENTRICITY":0.0001488,"INCLINATION":87.9029,"RA_OF_ASC_NODE":69.9885,"ARG_OF_PERICENTER":79.3536,"MEAN_ANOMALY":280.7763,"EPHEMERIS_TYPE":0,"CLASSIFICATION_TYPE":"U","NORAD_CAT_ID":49108,"ELEMENT_SET_NO":999,"REV_AT_EPOCH":19220,"BSTAR":8.549e-5,"MEAN_MOTION_DOT":4.6e-7,"MEAN_MOTION_DDOT":0},{"OBJECT_NAME":"ONEWEB-0292","OBJECT_ID":"2021-083A","EPOCH":"2025-07-29T22:25:26.771232","MEAN_MOTION":13.13469492,"ECCENTRICITY":0.0001767,"INCLINATION":87.8968,"RA_OF_ASC_NODE":24.2865,"ARG_OF_PERICENTER":97.4228,"MEAN_ANOMALY":262.7102,"EPHEMERIS_TYPE":0,"CLASSIFICATION_TYPE":"U","NORAD_CAT_ID":49186,"ELEMENT_SET_NO":999,"REV_AT_EPOCH":18862,"BSTAR":0.00098941,"MEAN_MOTION_DOT":3.74e-6,"MEAN_MOTION_DDOT":0},{"OBJECT_NAME":"ONEWEB-0303","OBJECT_ID":"2021-083B","EPOCH":"2025-07-29T21:42:50.964192","MEAN_MOTION":13.18685124,"ECCENTRICITY":0.0001734,"INCLINATION":87.9125,"RA_OF_ASC_NODE":39.4742,"ARG_OF_PERICENTER":95.0255,"MEAN_ANOMALY":265.1075,"EPHEMERIS_TYPE":0,"CLASSIFICATION_TYPE":"U","NORAD_CAT_ID":49187,"ELEMENT_SET_NO":999,"REV_AT_EPOCH":18750,"BSTAR":0.00012829,"MEAN_MOTION_DOT":6.3e-7,"MEAN_MOTION_DDOT":0},{"OBJECT_NAME":"ONEWEB-0306","OBJECT_ID":"2021-083C","EPOCH":"2025-07-29T21:28:36.010272","MEAN_MOTION":13.18684394,"ECCENTRICITY":0.0001876,"INCLINATION":87.9125,"RA_OF_ASC_NODE":39.4615,"ARG_OF_PERICENTER":83.0559,"MEAN_ANOMALY":277.0787,"EPHEMERIS_TYPE":0,"CLASSIFICATION_TYPE":"U","NORAD_CAT_ID":49188,"ELEMENT_SET_NO":999,"REV_AT_EPOCH":18882,"BSTAR":-4.5565e-5,"MEAN_MOTION_DOT":-5.0e-8,"MEAN_MOTION_DDOT":0},{"OBJECT_NAME":"ONEWEB-0307","OBJECT_ID":"2021-083D","EPOCH":"2025-07-29T20:27:14.208192","MEAN_MOTION":13.13468365,"ECCENTRICITY":0.0001682,"INCLINATION":87.8954,"RA_OF_ASC_NODE":24.3061,"ARG_OF_PERICENTER":81.4748,"MEAN_ANOMALY":278.6571,"EPHEMERIS_TYPE":0,"CLASSIFICATION_TYPE":"U","NORAD_CAT_ID":49189,"ELEMENT_SET_NO":999,"REV_AT_EPOCH":18861,"BSTAR":0.0017411,"MEAN_MOTION_DOT":6.49e-6,"MEAN_MOTION_DDOT":0},{"OBJECT_NAME":"ONEWEB-0320","OBJECT_ID":"2021-083E","EPOCH":"2025-07-29T19:48:50.738400","MEAN_MOTION":13.18685919,"ECCENTRICITY":0.0001774,"INCLINATION":87.9124,"RA_OF_ASC_NODE":39.504,"ARG_OF_PERICENTER":89.7898,"MEAN_ANOMALY":270.3437,"EPHEMERIS_TYPE":0,"CLASSIFICATION_TYPE":"U","NORAD_CAT_ID":49190,"ELEMENT_SET_NO":999,"REV_AT_EPOCH":18749,"BSTAR":-0.00011171,"MEAN_MOTION_DOT":-3.1e-7,"MEAN_MOTION_DDOT":0}]
